[{"OBJECT_NAME":"COSMOS 2489 (RODNIK-S 8)","OBJECT_ID":"2013-076B","EPOCH":"2026-04-04T22:06:24.322176","MEAN_MOTION":12.42877597,"ECCENTRICITY":0.00203396,"INCLINATION":82.49,"RA_OF_ASC_NODE":215.6877,"ARG_OF_PERICENTER":253.3888,"MEAN_ANOMALY":106.4958,"EPHEMERIS_TYPE":0,"CLASSIFICATION_TYPE":"U","NORAD_CAT_ID":39484,"ELEMENT_SET_NO":999,"REV_AT_EPOCH":55684,"BSTAR":-0.00040598463,"MEAN_MOTION_DOT":-4.7e-7,"MEAN_MOTION_DDOT":0},{"OBJECT_NAME":"COSMOS 2490 (RODNIK-S 9)","OBJECT_ID":"2013-076C","EPOCH":"2026-04-04T21:25:44.170176","MEAN_MOTION":12.42875017,"ECCENTRICITY":0.00203267,"INCLINATION":82.485,"RA_OF_ASC_NODE":213.8044,"ARG_OF_PERICENTER":270.0639,"MEAN_ANOMALY":89.8111,"EPHEMERIS_TYPE":0,"CLASSIFICATION_TYPE":"U","NORAD_CAT_ID":39485,"ELEMENT_SET_NO":999,"REV_AT_EPOCH":55677,"BSTAR":-0.00017692651,"MEAN_MOTION_DOT":-1.5e-7,"MEAN_MOTION_DDOT":0},{"OBJECT_NAME":"AIST-1 (RS41)","OBJECT_ID":"2013-078C","EPOCH":"2026-04-04T22:01:22.621152","MEAN_MOTION":14.95874014,"ECCENTRICITY":0.00172036,"INCLINATION":82.4183,"RA_OF_ASC_NODE":341.8548,"ARG_OF_PERICENTER":158.3348,"MEAN_ANOMALY":201.8605,"EPHEMERIS_TYPE":0,"CLASSIFICATION_TYPE":"U","NORAD_CAT_ID":39492,"ELEMENT_SET_NO":999,"REV_AT_EPOCH":66429,"BSTAR":0.00022614128,"MEAN_MOTION_DOT":2.56e-5,"MEAN_MOTION_DDOT":0},{"OBJECT_NAME":"KAZEOSAT 1","OBJECT_ID":"2014-024A","EPOCH":"2026-04-04T23:00:50.584320","MEAN_MOTION":14.42050579,"ECCENTRICITY":0.00011529,"INCLINATION":98.3243,"RA_OF_ASC_NODE":169.2158,"ARG_OF_PERICENTER":102.4805,"MEAN_ANOMALY":257.6514,"EPHEMERIS_TYPE":0,"CLASSIFICATION_TYPE":"U","NORAD_CAT_ID":39731,"ELEMENT_SET_NO":999,"REV_AT_EPOCH":62800,"BSTAR":0.00011211506,"MEAN_MOTION_DOT":3.25e-6,"MEAN_MOTION_DDOT":0},{"OBJECT_NAME":"COSMOS 2496 (RODNIK-S 10)","OBJECT_ID":"2014-028A","EPOCH":"2026-04-04T22:20:35.351808","MEAN_MOTION":12.42875471,"ECCENTRICITY":0.00189806,"INCLINATION":82.4472,"RA_OF_ASC_NODE":154.6155,"ARG_OF_PERICENTER":236.0411,"MEAN_ANOMALY":123.8865,"EPHEMERIS_TYPE":0,"CLASSIFICATION_TYPE":"U","NORAD_CAT_ID":39761,"ELEMENT_SET_NO":999,"REV_AT_EPOCH":53841,"BSTAR":0.00048432051,"MEAN_MOTION_DOT":7.7e-7,"MEAN_MOTION_DDOT":0},{"OBJECT_NAME":"COSMOS 2497 (RODNIK-S 11)","OBJECT_ID":"2014-028B","EPOCH":"2026-04-04T21:46:19.267680","MEAN_MOTION":12.42891341,"ECCENTRICITY":0.00196121,"INCLINATION":82.4524,"RA_OF_ASC_NODE":156.2916,"ARG_OF_PERICENTER":230.8194,"MEAN_ANOMALY":129.1144,"EPHEMERIS_TYPE":0,"CLASSIFICATION_TYPE":"U","NORAD_CAT_ID":39762,"ELEMENT_SET_NO":999,"REV_AT_EPOCH":53841,"BSTAR":0.00066712917,"MEAN_MOTION_DOT":1.02e-6,"MEAN_MOTION_DDOT":0},{"OBJECT_NAME":"COSMOS 2498 (RODNIK-S 12)","OBJECT_ID":"2014-028C","EPOCH":"2026-04-04T21:21:24.171840","MEAN_MOTION":12.42978391,"ECCENTRICITY":0.00203411,"INCLINATION":82.4481,"RA_OF_ASC_NODE":154.8217,"ARG_OF_PERICENTER":230.603,"MEAN_ANOMALY":129.3249,"EPHEMERIS_TYPE":0,"CLASSIFICATION_TYPE":"U","NORAD_CAT_ID":39763,"ELEMENT_SET_NO":999,"REV_AT_EPOCH":53844,"BSTAR":0.00081362328,"MEAN_MOTION_DOT":1.23e-6,"MEAN_MOTION_DDOT":0},{"OBJECT_NAME":"COSMOS 2499 (RS47)","OBJECT_ID":"2014-028E","EPOCH":"2026-04-04T23:17:13.566624","MEAN_MOTION":12.82901667,"ECCENTRICITY":0.02316417,"INCLINATION":82.4467,"RA_OF_ASC_NODE":301.8473,"ARG_OF_PERICENTER":173.2884,"MEAN_ANOMALY":187.1416,"EPHEMERIS_TYPE":0,"CLASSIFICATION_TYPE":"U","NORAD_CAT_ID":39765,"ELEMENT_SET_NO":999,"REV_AT_EPOCH":55563,"BSTAR":2.4740843e-5,"MEAN_MOTION_DOT":1.8e-7,"MEAN_MOTION_DDOT":0},{"OBJECT_NAME":"HODOYOSHI-4","OBJECT_ID":"2014-033B","EPOCH":"2026-04-04T22:33:06.516000","MEAN_MOTION":14.8795334,"ECCENTRICITY":0.00235102,"INCLINATION":97.5452,"RA_OF_ASC_NODE":283.3028,"ARG_OF_PERICENTER":184.7644,"MEAN_ANOMALY":175.3353,"EPHEMERIS_TYPE":0,"CLASSIFICATION_TYPE":"U","NORAD_CAT_ID":40011,"ELEMENT_SET_NO":999,"REV_AT_EPOCH":63791,"BSTAR":0.00070403961,"MEAN_MOTION_DOT":6.437e-5,"MEAN_MOTION_DDOT":0},{"OBJECT_NAME":"UNISAT-6","OBJECT_ID":"2014-033C","EPOCH":"2026-04-04T21:41:39.420672","MEAN_MOTION":14.87827095,"ECCENTRICITY":0.00441648,"INCLINATION":97.7779,"RA_OF_ASC_NODE":248.9657,"ARG_OF_PERICENTER":311.0526,"MEAN_ANOMALY":48.6877,"EPHEMERIS_TYPE":0,"CLASSIFICATION_TYPE":"U","NORAD_CAT_ID":40012,"ELEMENT_SET_NO":999,"REV_AT_EPOCH":63526,"BSTAR":0.00051225012,"MEAN_MOTION_DOT":4.71e-5,"MEAN_MOTION_DDOT":0},{"OBJECT_NAME":"DEIMOS-2","OBJECT_ID":"2014-033D","EPOCH":"2026-04-04T21:25:37.401600","MEAN_MOTION":14.93527376,"ECCENTRICITY":0.00013832,"INCLINATION":97.5934,"RA_OF_ASC_NODE":331.9254,"ARG_OF_PERICENTER":109.6917,"MEAN_ANOMALY":250.4452,"EPHEMERIS_TYPE":0,"CLASSIFICATION_TYPE":"U","NORAD_CAT_ID":40013,"ELEMENT_SET_NO":999,"REV_AT_EPOCH":62678,"BSTAR":0.0004316784,"MEAN_MOTION_DOT":4.493e-5,"MEAN_MOTION_DDOT":0},{"OBJECT_NAME":"BUGSAT-1 (TITA)","OBJECT_ID":"2014-033E","EPOCH":"2026-04-04T22:20:54.553344","MEAN_MOTION":15.14868091,"ECCENTRICITY":0.00296108,"INCLINATION":98.041,"RA_OF_ASC_NODE":183.2497,"ARG_OF_PERICENTER":72.235,"MEAN_ANOMALY":288.2108,"EPHEMERIS_TYPE":0,"CLASSIFICATION_TYPE":"U","NORAD_CAT_ID":40014,"ELEMENT_SET_NO":999,"REV_AT_EPOCH":64474,"BSTAR":0.00044713308,"MEAN_MOTION_DOT":8.337e-5,"MEAN_MOTION_DDOT":0},{"OBJECT_NAME":"SAUDISAT 4","OBJECT_ID":"2014-033G","EPOCH":"2026-04-04T16:04:56.887104","MEAN_MOTION":14.79438774,"ECCENTRICITY":0.0043801,"INCLINATION":97.7466,"RA_OF_ASC_NODE":243.3947,"ARG_OF_PERICENTER":313.907,"MEAN_ANOMALY":45.8529,"EPHEMERIS_TYPE":0,"CLASSIFICATION_TYPE":"U","NORAD_CAT_ID":40016,"ELEMENT_SET_NO":999,"REV_AT_EPOCH":63520,"BSTAR":0.00016608,"MEAN_MOTION_DOT":1.207e-5,"MEAN_MOTION_DDOT":0},{"OBJECT_NAME":"APRIZESAT 9","OBJECT_ID":"2014-033J","EPOCH":"2026-04-04T21:38:42.117504","MEAN_MOTION":14.74130831,"ECCENTRICITY":0.00675455,"INCLINATION":97.8935,"RA_OF_ASC_NODE":229.9428,"ARG_OF_PERICENTER":76.2986,"MEAN_ANOMALY":284.573,"EPHEMERIS_TYPE":0,"CLASSIFICATION_TYPE":"U","NORAD_CAT_ID":40018,"ELEMENT_SET_NO":999,"REV_AT_EPOCH":63276,"BSTAR":0.00016521767,"MEAN_MOTION_DOT":1.077e-5,"MEAN_MOTION_DDOT":0},{"OBJECT_NAME":"BRITE-CA1 (TORONTO)","OBJECT_ID":"2014-033L","EPOCH":"2026-04-04T20:36:52.632864","MEAN_MOTION":14.72553439,"ECCENTRICITY":0.00795449,"INCLINATION":97.9618,"RA_OF_ASC_NODE":225.1935,"ARG_OF_PERICENTER":150.8945,"MEAN_ANOMALY":209.6732,"EPHEMERIS_TYPE":0,"CLASSIFICATION_TYPE":"U","NORAD_CAT_ID":40020,"ELEMENT_SET_NO":999,"REV_AT_EPOCH":63142,"BSTAR":0.00031942169,"MEAN_MOTION_DOT":2.082e-5,"MEAN_MOTION_DDOT":0},{"OBJECT_NAME":"DUCHIFAT-1","OBJECT_ID":"2014-033M","EPOCH":"2026-04-04T21:14:26.518560","MEAN_MOTION":15.53494731,"ECCENTRICITY":0.0003133,"INCLINATION":98.0573,"RA_OF_ASC_NODE":144.4647,"ARG_OF_PERICENTER":343.7899,"MEAN_ANOMALY":16.3251,"EPHEMERIS_TYPE":0,"CLASSIFICATION_TYPE":"U","NORAD_CAT_ID":40021,"ELEMENT_SET_NO":999,"REV_AT_EPOCH":64433,"BSTAR":0.0011645943,"MEAN_MOTION_DOT":0.00074417,"MEAN_MOTION_DDOT":0}]
