COSMOS 2489 (RODNIK-S 8)
1 39484U 13076B   26094.92111484 -.00000047  00000+0 -40598-3 0  9997
2 39484  82.4900 215.6877 0020339 253.3888 106.4958 12.42877597556846
COSMOS 2490 (RODNIK-S 9)
1 39485U 13076C   26094.89287234 -.00000015  00000+0 -17693-3 0  9996
2 39485  82.4850 213.8044 0020326 270.0639  89.8111 12.42875017556775
AIST-1 (RS41)           
1 39492U 13078C   26094.91762293  .00002560  00000+0  22614-3 0  9996
2 39492  82.4183 341.8548 0017203 158.3348 201.8605 14.95874014664295
KAZEOSAT 1              
1 39731U 14024A   26094.95891880  .00000325  00000+0  11212-3 0  9992
2 39731  98.3243 169.2158 0001152 102.4805 257.6514 14.42050579628008
COSMOS 2496 (RODNIK-S *)
1 39761U 14028A   26094.93096472  .00000077  00000+0  48432-3 0  9999
2 39761  82.4472 154.6155 0018980 236.0411 123.8865 12.42875471538410
COSMOS 2497 (RODNIK-S *)
1 39762U 14028B   26094.90716745  .00000102  00000+0  66713-3 0  9990
2 39762  82.4524 156.2916 0019612 230.8194 129.1144 12.42891341538418
COSMOS 2498 (RODNIK-S *)
1 39763U 14028C   26094.88986310  .00000123  00000+0  81362-3 0  9995
2 39763  82.4481 154.8217 0020341 230.6030 129.3249 12.42978391538449
COSMOS 2499 (RS47)      
1 39765U 14028E   26094.97029591  .00000018  00000+0  24741-4 0  9998
2 39765  82.4467 301.8473 0231641 173.2884 187.1416 12.82901667555633
HODOYOSHI-4             
1 40011U 14033B   26094.93965875  .00006437  00000+0  70404-3 0  9997
2 40011  97.5452 283.3028 0023510 184.7644 175.3353 14.87953340637918
UNISAT-6                
1 40012U 14033C   26094.90392848  .00004710  00000+0  51225-3 0  9991
2 40012  97.7779 248.9657 0044164 311.0526  48.6877 14.87827095635266
DEIMOS-2                
1 40013U 14033D   26094.89279400  .00004493  00000+0  43168-3 0  9993
2 40013  97.5934 331.9254 0001383 109.6917 250.4452 14.93527376626780
BUGSAT-1 (TITA)         
1 40014U 14033E   26094.93118696  .00008337  00000+0  44713-3 0  9996
2 40014  98.0410 183.2497 0029610  72.2350 288.2108 15.14868091644741
SAUDISAT 4              
1 40016U 14033G   26094.67010286  .00001207  00000+0  16608-3 0  9996
2 40016  97.7466 243.3947 0043801 313.9070  45.8529 14.79438774635206
APRIZESAT 9             
1 40018U 14033J   26094.90187636  .00001077  00000+0  16522-3 0  9998
2 40018  97.8935 229.9428 0067545  76.2986 284.5730 14.74130831632762
BRITE-CA1 (TORONTO)     
1 40020U 14033L   26094.85894251  .00002082  00000+0  31942-3 0  9993
2 40020  97.9618 225.1935 0079544 150.8945 209.6732 14.72553439631424
DUCHIFAT-1              
1 40021U 14033M   26094.88502915  .00074417  00000+0  11646-2 0  9999
2 40021  98.0573 144.4647 0003133 343.7899  16.3251 15.53494731644334
